INTELSAT 902 (IS-902)   
1 26900U 01039A   26194.10279953 -.00000291  00000+0  00000+0 0  9999
2 26900   6.1801  71.4647 0004427  37.8102 168.6068  1.00270527 90954
INTELSAT 904 (IS-904)   
1 27380U 02007A   26193.98441972 -.00000233  00000+0  00000+0 0  9991
2 27380   6.9819  68.8712 0005372  24.1748 160.7451  1.00271153 52023
DIRECTV 5 (TEMPO 1)     
1 27426U 02023A   26194.33426542 -.00000065  00000+0  00000+0 0  9999
2 27426   4.9421  74.9829 0003029  43.8588 182.5932  1.00271116 88388
INTELSAT 905 (IS-905)   
1 27438U 02027A   26194.27046860  .00000085  00000+0  00000+0 0  9991
2 27438   6.8166  69.4817 0003445  46.1683 135.6585  1.00271219 51622
GALAXY 3C (G-3C)        
1 27445U 02030A   26194.13725292 -.00000158  00000+0  00000+0 0  9993
2 27445   3.7981  77.6387 0001495  36.4860 131.4738  1.00270623 46756
INTELSAT 906 (IS-906)   
1 27513U 02041A   26194.21727284  .00000005  00000+0  00000+0 0  9993
2 27513   5.8663  72.6001 0003876  22.4752 338.3809  1.00272740 87293
GALAXY 13 (HORIZONS-1)  
1 27954U 03044A   26194.26375573  .00000128  00000+0  00000+0 0  9997
2 27954   1.4845  83.5320 0002164  26.3008 126.2480  1.00270420 46834
INTELSAT 10-02          
1 28358U 04022A   26193.99046975 -.00000012  00000+0  00000+0 0  9996
2 28358   0.0534 251.1781 0000515 344.4139  50.8437  1.00271565 80815
DIRECTV 8               
1 28659U 05019A   26194.27465118 -.00000001  00000+0  00000+0 0  9991
2 28659   0.0136 336.5868 0003036 150.6741 143.7119  1.00271106 77331
GALAXY 28 (G-28)        
1 28702U 05022A   26194.27045498 -.00000206  00000+0  00000+0 0  9996
2 28702   3.3636  78.6126 0002307  32.1993 250.5910  1.00270676 52234
GALAXY 16 (G-16)        
1 29236U 06023A   26193.82840095 -.00000127  00000+0  00000+0 0  9999
2 29236   0.0377 111.3355 0002438  11.0191   7.5822  1.00271154 73230
DIRECTV 9S              
1 29494U 06043A   26194.28134906 -.00000118  00000+0  00000+0 0  9995
2 29494   2.4856  80.5877 0004988  33.4489 177.2065  1.00270974 51644
GALAXY 17 (G-17)        
1 31307U 07016B   26194.28713500 -.00000212  00000+0  00000+0 0  9990
2 31307   3.0353  79.5710 0003549  34.5493 195.3842  1.00270268 70069
INTELSAT 11 (IS-11)     
1 32253U 07044B   26194.27799501 -.00000118  00000+0  00000+0 0  9991
2 32253   3.6309  78.3524 0004116 100.7185 223.1796  0.99051585 68704
HORIZONS-2              
1 32388U 07063B   26194.29571061 -.00000259  00000+0  00000+0 0  9998
2 32388   2.6669  80.3049 0003528  19.0040 224.5170  1.00269776 68071
DIRECTV 11              
1 32729U 08013A   26194.04237419 -.00000127  00000+0  00000+0 0  9996
2 32729   0.0111 275.1763 0000174 318.2318 333.5856  1.00271885 45854
GALAXY 18 (G-18)        
1 32951U 08024A   26194.27350525  .00000023  00000+0  00000+0 0  9998
2 32951   0.0044 110.1509 0002806  15.6712 140.7868  1.00270900 46110
GALAXY 19 (G-19)        
1 33376U 08045A   26193.90020581 -.00000140  00000+0  00000+0 0  9999
2 33376   0.0537 238.0715 0002326 244.2537  35.5304  1.00272027 65164
FM-5                    
1 35493U 09034A   26193.90237249 -.00000201  00000+0  00000+0 0  9999
2 35493   0.0416 268.2075 0000668  72.2071 189.0649  1.00271288 46901
INTELSAT 14 (IS-14)     
1 36097U 09064A   26194.12436051 -.00000276  00000+0  00000+0 0  9992
2 36097   0.0155  42.2389 0002221  77.1990 171.3473  1.00270601 60869
INTELSAT 15 (IS-15)     
1 36106U 09067A   26194.12316917 -.00000187  00000+0  00000+0 0  9995
2 36106   0.0182  63.6977 0002085  57.3947 299.4048  1.00270933 41485
DIRECTV 12              
1 36131U 09075A   26193.89907914 -.00000104  00000+0  00000+0 0  9997
2 36131   0.0059 118.1538 0000376 110.5275 283.0374  1.00271042 46817
INTELSAT 16 (IS-16)     
1 36397U 10006A   26194.32752903 -.00000247  00000+0  00000+0 0  9990
2 36397   0.0071  41.9005 0002283  95.0436 195.9669  1.00270486 59916
XM-5                    
1 37185U 10053A   26194.27598828 -.00000026  00000+0  00000+0 0  9991
2 37185   0.0648 265.0318 0001727 322.3275  47.9546  1.00270903 57740
INTELSAT 17 (IS-17)     
1 37238U 10065B   26194.19261205 -.00000003  00000+0  00000+0 0  9995
2 37238   0.0159 200.9581 0002506 278.5362 306.9128  1.00269564 53506
INTELSAT 28 (IS-28)     
1 37392U 11016A   26194.26694727 -.00000230  00000+0  00000+0 0  9992
2 37392   1.8712  82.2976 0003676  39.7511 233.4790  1.00271404 53541
INTELSAT 18 (IS-18)     
1 37834U 11056A   26194.16890740  .00000050  00000+0  00000+0 0  9998
2 37834   0.0153 329.8836 0001652 153.9874  47.9804  1.00269998 54078
INTELSAT 22 (IS-22)     
1 38098U 12011A   26194.22892255  .00000000  00000+0  00000+0 0  9998
2 38098   0.0432  73.1016 0001967  61.2705 311.2416  1.00271284  7450
INTELSAT 19 (IS-19)     
1 38356U 12030A   26194.09489087 -.00000059  00000+0  00000+0 0  9991
2 38356   0.0120  58.0489 0003060  67.3891   5.6958  1.00271181 50714
INTELSAT 20 (IS-20)     
1 38740U 12043A   26194.22892255 -.00000027  00000+0  00000+0 0  9997
2 38740   0.0123  63.9668 0001296 108.1868 269.8663  1.00272631 51006
INTELSAT 21 (IS-21)     
1 38749U 12045A   26194.12176050 -.00000287  00000+0  00000+0 0  9993
2 38749   0.0180  36.3687 0001702  85.8183 154.6640  1.00275983 50789
INTELSAT 23 (IS-23)     
1 38867U 12057A   26194.31641906 -.00000288  00000+0  00000+0 0  9996
2 38867   0.0135  19.9646 0000319 172.9508 159.1922  1.00274015 50210
FM-6                    
1 39360U 13058A   26193.61120086 -.00000014  00000+0  00000+0 0  9997
2 39360   0.0177  43.8724 0001048 136.9706 213.3301  1.00266064 46324
INTELSAT 30 (IS-30)     
1 40271U 14062A   26193.82918095 -.00000152  00000+0  00000+0 0  9997
2 40271   0.0165  46.9734 0001199 336.3929 110.8103  1.00273200  7057
DIRECTV 14              
1 40333U 14078B   26194.18487453 -.00000127  00000+0  00000+0 0  9994
2 40333   0.0147  48.5403 0000254 253.7402 316.0900  1.00270023 42308
DIRECTV 15              
1 40663U 15026A   26193.61388753 -.00000102  00000+0  00000+0 0  9997
2 40663   0.0184  70.9457 0000098 201.8573 135.8290  1.00272075 40713
SKY MEXICO-1            
1 40664U 15026B   26194.32752903 -.00000237  00000+0  00000+0 0  9998
2 40664   0.0163  21.9998 0002332 113.5664 194.7487  1.00270516 40710
INTELSAT 34 (IS-34)     
1 40874U 15039A   26194.10409780 -.00000287  00000+0  00000+0 0  9998
2 40874   0.0107   1.3438 0000492 353.9217 277.7081  1.00271511 39896
INTELSAT 31 (IS-31)     
1 41581U 16035A   26194.18574119 -.00000153  00000+0  00000+0 0  9990
2 41581   0.0160 289.2103 0001138 354.6494 339.0259  1.00271434 36946
INTELSAT 36 (IS-36)     
1 41747U 16053A   26194.19261205 -.00000026  00000+0  00000+0 0  9993
2 41747   0.0101  19.2212 0002509 321.3392  88.3368  1.00270041 36216
INTELSAT 32E (IS-32E)   
1 41945U 17007B   26194.12470718  .00000000  00000+0  00000+0 0  9998
2 41945   0.0250  44.8942 0000425 284.8742 322.9651  1.00269412 34481
INTELSAT 35E (IS-35E)   
1 42818U 17041A   26193.91256185 -.00000239  00000+0  00000+0 0  9997
2 42818   0.0167  45.3733 0001581  65.1012 114.3450  1.00269769 33075
INTELSAT 37E (IS-37E)   
1 42950U 17059A   26194.03377860 -.00000143  00000+0  00000+0 0  9995
2 42950   0.0156  71.5028 0002484  47.5543 166.0149  1.00270449 32327
AZERSPACE 2 (IS-38)     
1 43632U 18074A   26194.21345949  .00000000  00000+0  00000+0 0  9995
2 43632   0.0255  43.1522 0001215  78.6553 291.2528  1.00269706 28709
HORIZONS-3E             
1 43633U 18074B   26194.09532420 -.00000033  00000+0  00000+0 0  9991
2 43633   0.0482 223.1894 0000975  65.1377 205.9637  1.00269520 28607
AT&T T-16               
1 44333U 19034A   26194.18461453 -.00000117  00000+0  00000+0 0  9996
2 44333   0.0150  54.0006 0000677 266.6085 296.0604  1.00269295 25898
INTELSAT 39 (IS-39)     
1 44476U 19049B   26194.21683950  .00000000  00000+0  00000+0 0  9992
2 44476   0.0265  47.3312 0000942 280.2258 103.5572  1.00269557 25388
GALAXY 30 (G-30)        
1 46114U 20056C   26194.23586505  .00000034  00000+0  00000+0 0  9990
2 46114   0.0181  35.4758 0001953  79.1056 136.4367  1.00271193 21553
GALAXY 33 (G-33)        
1 54026U 22128A   26194.27584255  .00000076  00000+0  00000+0 0  9993
2 54026   0.0139  20.7800 0001758  99.2510 137.4242  1.00271487 14004
GALAXY 34 (G-34)        
1 54027U 22128B   26193.96516197  .00000000  00000+0  00000+0 0  9996
2 54027   0.0243  20.8122 0001453 119.7956   8.7058  1.00273632 14170
GALAXY 31 (G-31)        
1 54243U 22153A   26194.25191514  .00000011  00000+0  00000+0 0  9991
2 54243   0.0182  65.6448 0000950  53.7149 141.4445  1.00270644  7393
GALAXY 32 (G-32)        
1 54244U 22153B   26194.11523328 -.00000176  00000+0  00000+0 0  9992
2 54244   0.0124  24.1776 0001454  22.4936 194.8053  1.00270119 13404
GALAXY 35 (G-35)        
1 54741U 22170A   26194.33531355  .00000000  00000+0  00000+0 0  9991
2 54741   0.0244  63.0238 0001904  53.9930 201.8076  1.00268735 13154
GALAXY 36 (G-36)        
1 54742U 22170B   26193.83039429 -.00000186  00000+0  00000+0 0  9997
2 54742   0.0298 108.9509 0002341 351.1655  40.5435  1.00270917 13036
GALAXY 37 (G-37)        
1 57493U 23112A   26194.24114220  .00000046  00000+0  00000+0 0  9993
2 57493   0.0200  71.4722 0001742  45.6328 133.8199  1.00271113 10806
